NORAD_CAT_ID,OBJECT_NAME,OBJECT_TYPE,EPOCH,MEAN_MOTION,ECCENTRICITY,INCLINATION,RA_OF_ASC_NODE,ARG_OF_PERICENTER,MEAN_ANOMALY,BSTAR,MEAN_MOTION_DOT,MEAN_MOTION_DDOT,TLE_LINE0,TLE_LINE1,TLE_LINE2,SEMIMAJOR_AXIS,PERIOD,APOGEE,PERIGEE,DECAYED
53892.0,STARLINK-5046,PAYLOAD,2023-04-23 16:57:57,15.08843915,0.0001028,53.2162,2.0426,111.0649,249.0453,0.00016965,2.414e-05,0.0,0 STARLINK-5046,1 53892U 22119G   23113.70691457  .00002414  00000-0  16965-3 0  9992,2 53892  53.2162   2.0426 0001028 111.0649 249.0453 15.08843915 33024,6917.868,95.437,540.445,539.022,0.0
53892.0,STARLINK-5046,PAYLOAD,2023-04-24 02:30:15,15.0885782,0.0001149,53.2169,0.2573,116.2887,243.8223,0.00019841,2.873e-05,0.0,0 STARLINK-5046,1 53892U 22119G   23114.10434512  .00002873  00000-0  19841-3 0  9999,2 53892  53.2169   0.2573 0001149 116.2887 243.8223 15.08857820 33082,6917.826,95.436,540.486,538.896,0.0
53892.0,STARLINK-5046,PAYLOAD,2023-04-24 16:48:42,15.08873807,0.0001332,53.2171,357.5805,118.6199,241.4927,0.00054924,8.472e-05,0.0,0 STARLINK-5046,1 53892U 22119G   23114.70049213  .00008472  00000-0  54924-3 0  9997,2 53892  53.2171 357.5805 0001332 118.6199 241.4927 15.08873807 32758,6917.777,95.435,540.564,538.721,0.0
53892.0,STARLINK-5046,PAYLOAD,2023-04-24 23:10:14,15.08886304,0.0001051,53.2172,356.394,105.7904,254.3204,0.00071152,0.00011068,0.0,0 STARLINK-5046,1 53892U 22119G   23114.96544512  .00011068  00000-0  71152-3 0  9994,2 53892  53.2172 356.3940 0001051 105.7904 254.3204 15.08886304 33214,6917.739,95.435,540.331,538.877,0.0
53892.0,STARLINK-5046,PAYLOAD,2023-04-26 03:47:15,15.08782707,0.0001079,53.2165,351.042,98.5809,261.5305,-0.00096463,-0.00015583,0.0,0 STARLINK-5046,1 53892U 22119G   23116.15781302 -.00015583  00000-0 -96463-3 0  9997,2 53892  53.2165 351.0420 0001079  98.5809 261.5305 15.08782707 33397,6918.056,95.441,540.667,539.174,0.0
53892.0,STARLINK-5046,PAYLOAD,2023-04-26 16:30:19,15.08823214,0.0001174,53.218,348.6654,95.3841,264.7285,-8.0655e-05,-1.571e-05,0.0,0 STARLINK-5046,1 53892U 22119G   23116.68772189 -.00001571  00000-0 -80655-4 0  9997,2 53892  53.2180 348.6654 0001174  95.3841 264.7285 15.08823214 33472,6917.932,95.439,540.609,538.985,0.0
53892.0,STARLINK-5046,PAYLOAD,2023-04-27 14:45:45,15.08773659,0.0001302,53.2191,344.5025,85.1483,274.9658,0.0027032,0.00042917,0.0,0 STARLINK-5046,1 53892U 22119G   23117.61511534  .00042917  00000-0  27032-2 0  9991,2 53892  53.2191 344.5025 0001302  85.1483 274.9658 15.08773659 33196,6918.083,95.442,540.849,539.047,0.0
53892.0,STARLINK-5046,PAYLOAD,2023-04-28 00:18:02,15.08850164,0.0001377,53.2168,342.7158,103.2658,256.8488,0.00086395,0.00013492,0.0,0 STARLINK-5046,1 53892U 22119G   23118.01252733  .00013492  00000-0  86395-3 0  9993,2 53892  53.2168 342.7158 0001377 103.2658 256.8488 15.08850164 33259,6917.849,95.437,540.667,538.762,0.0
53892.0,STARLINK-5046,PAYLOAD,2023-04-28 08:14:58,15.08843043,0.0001421,53.2164,341.2294,88.1613,271.9542,0.00021791,3.182e-05,0.0,0 STARLINK-5046,1 53892U 22119G   23118.34372879  .00003182  00000-0  21791-3 0  9997,2 53892  53.2164 341.2294 0001421  88.1613 271.9542 15.08843043 33305,6917.871,95.437,540.719,538.753,0.0
53892.0,STARLINK-5046,PAYLOAD,2023-04-29 01:44:12,15.08846392,0.0001461,53.2171,337.9585,87.5336,272.5823,3.1572e-05,2.15e-06,0.0,0 STARLINK-5046,1 53892U 22119G   23119.07236526  .00000215  00000-0  31572-4 0  9999,2 53892  53.2171 337.9585 0001461  87.5336 272.5823 15.08846392 33834,6917.861,95.437,540.737,538.715,0.0
53892.0,STARLINK-5046,PAYLOAD,2023-04-29 17:38:03,15.08852698,0.0001438,53.2167,334.9847,84.9582,275.1575,0.00022441,3.287e-05,0.0,0 STARLINK-5046,1 53892U 22119G   23119.73476141  .00003287  00000-0  22441-3 0  9997,2 53892  53.2167 334.9847 0001438  84.9582 275.1575 15.08852698 33519,6917.842,95.437,540.701,538.712,0.0
53892.0,STARLINK-5046,PAYLOAD,2023-04-29 23:59:35,15.08860133,0.0001449,53.2168,333.7948,81.3285,278.7871,0.00073691,0.00011466,0.0,0 STARLINK-5046,1 53892U 22119G   23119.99972022  .00011466  00000-0  73691-3 0  9995,2 53892  53.2168 333.7948 0001449  81.3285 278.7871 15.08860133 33973,6917.819,95.436,540.686,538.681,0.0
53892.0,STARLINK-5046,PAYLOAD,2023-04-30 17:28:50,15.08844678,0.0001257,53.2165,330.5242,96.7504,263.3631,0.00016321,2.311e-05,0.0,0 STARLINK-5046,1 53892U 22119G   23120.72836275  .00002311  00000-0  16321-3 0  9993,2 53892  53.2165 330.5242 0001257  96.7504 263.3631 15.08844678 33669,6917.866,95.437,540.601,538.862,0.0
53892.0,STARLINK-5046,PAYLOAD,2023-04-30 23:50:23,15.08844587,0.0001213,53.2163,329.3343,95.814,264.2991,0.00020877,3.037e-05,0.0,0 STARLINK-5046,1 53892U 22119G   23120.99332265  .00003037  00000-0  20877-3 0  9999,2 53892  53.2163 329.3343 0001213  95.8140 264.2991 15.08844587 34123,6917.866,95.437,540.571,538.892,0.0
53892.0,STARLINK-5046,PAYLOAD,2023-05-01 17:19:37,15.08837082,0.0001277,53.2163,326.0626,101.8465,258.267,0.00018247,2.617e-05,0.0,0 STARLINK-5046,1 53892U 22119G   23121.72196686  .00002617  00000-0  18247-3 0  9997,2 53892  53.2163 326.0626 0001277 101.8465 258.2670 15.08837082 33813,6917.889,95.438,540.638,538.871,0.0
53892.0,STARLINK-5046,PAYLOAD,2023-05-01 20:30:24,15.08840976,0.0001271,53.2164,325.4679,99.9937,260.1198,0.00016664,2.365e-05,0.0,0 STARLINK-5046,1 53892U 22119G   23121.85444590  .00002365  00000-0  16664-3 0  9992,2 53892  53.2164 325.4679 0001271  99.9937 260.1198 15.08840976 34252,6917.877,95.437,540.622,538.863,0.0
53892.0,STARLINK-5046,PAYLOAD,2023-05-02 13:59:38,15.08843129,0.0001302,53.2159,322.1969,101.7645,258.3493,0.00023974,3.53e-05,0.0,0 STARLINK-5046,1 53892U 22119G   23122.58308632  .00003530  00000-0  23974-3 0  9996,2 53892  53.2159 322.1969 0001302 101.7645 258.3493 15.08843129 34367,6917.871,95.437,540.637,538.835,0.0
53892.0,STARLINK-5046,PAYLOAD,2023-05-02 17:10:24,15.08846382,0.0001331,53.2161,321.6024,104.4443,255.6697,0.00028122,4.191e-05,0.0,0 STARLINK-5046,1 53892U 22119G   23122.71556472  .00004191  00000-0  28122-3 0  9992,2 53892  53.2161 321.6024 0001331 104.4443 255.6697 15.08846382 34386,6917.861,95.437,540.647,538.805,0.0
53892.0,STARLINK-5046,PAYLOAD,2023-05-02 23:31:57,15.08851675,0.0001255,53.2159,320.4129,98.7208,261.3927,0.00034122,5.148e-05,0.0,0 STARLINK-5046,1 53892U 22119G   23122.98052209  .00005148  00000-0  34122-3 0  9990,2 53892  53.2159 320.4129 0001255  98.7208 261.3927 15.08851675 34005,6917.845,95.437,540.578,538.842,0.0
53892.0,STARLINK-5046,PAYLOAD,2023-05-03 05:53:29,15.08845106,0.0001137,53.2151,319.2237,88.5721,271.5401,0.00018271,2.622e-05,0.0,0 STARLINK-5046,1 53892U 22119G   23123.24548423  .00002622  00000-0  18271-3 0  9999,2 53892  53.2151 319.2237 0001137  88.5721 271.5401 15.08845106 34045,6917.865,95.437,540.516,538.943,0.0
53892.0,STARLINK-5046,PAYLOAD,2023-05-03 13:50:25,15.08841344,0.0001837,53.2155,317.7374,83.2562,276.8639,0.0001107,1.474e-05,0.0,0 STARLINK-5046,1 53892U 22119G   23123.57668817  .00001474  00000-0  11070-3 0  9999,2 53892  53.2155 317.7374 0001837  83.2562 276.8639 15.08841344 34519,6917.876,95.437,541.012,538.47,0.0
53892.0,STARLINK-5046,PAYLOAD,2023-05-03 20:11:58,15.08835163,0.000134,53.2167,316.5479,95.6771,264.4374,-2.8761e-06,-3.34e-06,0.0,0 STARLINK-5046,1 53892U 22119G   23123.84165031 -.00000334  00000-0 -28761-5 0  9992,2 53892  53.2167 316.5479 0001340  95.6771 264.4374 15.08835163 34132,6917.895,95.438,540.687,538.833,0.0
53892.0,STARLINK-5046,PAYLOAD,2023-05-03 21:47:21,15.08835395,0.0001303,53.2168,316.2515,86.313,273.8011,1.2409e-05,-9e-07,0.0,0 STARLINK-5046,1 53892U 22119G   23123.90789100 -.00000090  00000-0  12409-4 0  9997,2 53892  53.2168 316.2515 0001303  86.3130 273.8011 15.08835395 34562,6917.894,95.438,540.661,538.858,0.0
53892.0,STARLINK-5046,PAYLOAD,2023-05-04 13:41:12,15.0884436,0.0001217,53.2161,313.2766,89.1608,270.9524,0.00014728,2.057e-05,0.0,0 STARLINK-5046,1 53892U 22119G   23124.57028687  .00002057  00000-0  14728-3 0  9996,2 53892  53.2161 313.2766 0001217  89.1608 270.9524 15.08844360 34665,6917.867,95.437,540.574,538.89,0.0
53892.0,STARLINK-5046,PAYLOAD,2023-05-04 18:27:22,15.08849895,0.0001149,53.2155,312.3837,86.1161,273.9962,0.00027288,4.059e-05,0.0,0 STARLINK-5046,1 53892U 22119G   23124.76900492  .00004059  00000-0  27288-3 0  9999,2 53892  53.2155 312.3837 0001149  86.1161 273.9962 15.08849895 34276,6917.85,95.437,540.51,538.92,0.0
53892.0,STARLINK-5046,PAYLOAD,2023-05-04 21:38:08,15.08852346,0.0001162,53.215,311.7889,82.4926,277.6198,0.00061308,9.486e-05,0.0,0 STARLINK-5046,1 53892U 22119G   23124.90148574  .00009486  00000-0  61308-3 0  9990,2 53892  53.2150 311.7889 0001162  82.4926 277.6198 15.08852346 34710,6917.843,95.437,540.512,538.904,0.0
53892.0,STARLINK-5046,PAYLOAD,2023-05-05 11:56:37,15.08839392,0.0001594,53.2161,309.1145,82.5233,277.594,0.00012022,1.626e-05,0.0,0 STARLINK-5046,1 53892U 22119G   23125.49765062  .00001626  00000-0  12022-3 0  9999,2 53892  53.2161 309.1145 0001594  82.5233 277.5940 15.08839392 34382,6917.882,95.438,540.85,538.645,0.0
53892.0,STARLINK-5046,PAYLOAD,2023-05-05 19:53:32,15.08838957,0.0001191,53.2149,307.6261,82.9039,277.2088,0.00012525,1.706e-05,0.0,0 STARLINK-5046,1 53892U 22119G   23125.82885139  .00001706  00000-0  12525-3 0  9991,2 53892  53.2149 307.6261 0001191  82.9039 277.2088 15.08838957 34859,6917.884,95.438,540.572,538.925,0.0
53892.0,STARLINK-5046,PAYLOAD,2023-05-05 21:28:55,15.08838879,0.0001216,53.2148,307.3286,84.5394,275.5737,0.00011771,1.586e-05,0.0,0 STARLINK-5046,1 53892U 22119G   23125.89509137  .00001586  00000-0  11771-3 0  9997,2 53892  53.2148 307.3286 0001216  84.5394 275.5737 15.08838879 34868,6917.884,95.438,540.59,538.908,0.0
53892.0,STARLINK-5046,PAYLOAD,2023-05-06 21:19:42,15.08851215,0.0001234,53.2148,302.8665,91.1571,268.9562,0.00035796,5.415e-05,0.0,0 STARLINK-5046,1 53892U 22119G   23126.88868940  .00005415  00000-0  35796-3 0  9995,2 53892  53.2148 302.8665 0001234  91.1571 268.9562 15.08851215 34591,6917.846,95.437,540.565,538.857,0.0
